1 35594U 93036AMM 18210.57546879 +.00000401 +00000-0 +98283-4 0  9999
2 35594 073.8211 292.3425 0058578 199.5471 160.3446 14.55059838490764
1 35598U 93036AMR 18211.79153525  .00001290  00000-0  68745-4 0  9997
2 35598  73.9254 264.4615 0069736  89.0058 271.9125 15.14453702499125
1 35600U 93036AMT 18211.08282823  .00000710  00000-0  14424-3 0  9997
2 35600  73.9871 351.5488 0065032  73.9741 286.8575 14.61814214491346
1 35602U 93036AMV 18212.23956719  .00000245  00000-0  19330-4 0  9994
2 35602  74.0235 303.6767 0172383   5.3764  24.7211 14.96758321496754
1 35604U 93036AMX 18211.41625809 +.00000977 +00000-0 +32746-3 0  9995
2 35604 074.0223 230.0379 0060797 213.1732 146.5605 14.37573571299369
1 35605U 93036AMY 18211.31596454  .00000681  00000-0  19095-3 0  9992
2 35605  73.9045  97.7961 0107562 246.5628 112.4192 14.44796569485565
1 35606U 93036AMZ 18210.99444123 +.00000655 +00000-0 +69800-3 0  9991
2 35606 073.8132 322.3489 0464956 227.2386 128.8715 13.37236801250116
1 35610U 93036AND 18211.31033293  .00004135  00000-0  43449-3 0  9993
2 35610  73.9960 336.4186 0017367 340.2224  19.8282 14.89702423482838
1 35611U 93036ANE 18210.31546519 +.00000608 +00000-0 +19934-3 0  9996
2 35611 074.0304 176.1743 0043724 190.4112 169.6143 14.39933879483295
1 35612U 93036ANF 18212.28960819  .00010204  00000-0  45323-3 0  9992
2 35612  73.9869  70.2658 0015385 121.0488 239.2223 15.21518025491080
1 35613U 93036ANG 18211.82818043 +.00001876 +00000-0 +19302-3 0  9996
2 35613 073.9819 152.5177 0039714 276.7826 116.4748 14.90579215491667
1 35614U 93036ANH 18212.19386487  .00000300  00000-0  81459-4 0  9994
2 35614  73.9637  32.2958 0101561 145.8780 214.8965 14.49016012487330
1 35615U 97051QM  18211.79049851 +.00030108 +00000-0 +94703-3 0  9996
2 35615 086.3568 028.3969 0001354 200.0422 160.0775 15.32822582495886
1 35616U 97051QN  18211.36828523 +.00000538 +00000-0 +13461-3 0  9997
2 35616 086.3645 083.0541 0018242 295.0210 064.9100 14.49634273483831
1 35617U 97051QP  18212.09157395  .00005814  00000-0  63501-3 0  9993
2 35617  86.4887 137.2602 0051553 139.6047 220.9025 14.86725462484309
1 35618U 97051QQ  18211.37123177  .00000233  00000-0  62068-4 0  9993
2 35618  86.3407  77.8550 0032263 328.3437  31.5823 14.43878794483058
1 35620U 97051QS  18212.44245971  .00000869  00000-0  45986-3 0  9996
2 35620  86.4006 217.1032 0239137  41.6085 320.3014 13.99057603465693
1 35622U 97051QU  18211.50225215  .00000377  00000-0  10492-3 0  9991
2 35622  86.2241  42.9065 0028332  12.6668  16.8494 14.43620371483846
1 35624U 97051QW  18212.11434163  .00002995  00000-0  54224-3 0  9994
2 35624  86.3547  98.4415 0045097 311.0177  48.7140 14.65365088488405
1 35625U 97051QX  18212.45539617  .00000391  00000-0  18070-3 0  9999
2 35625  86.2000  99.5278 0132688  93.2729  30.8338 14.13603822476326
1 35627U 97051QZ  18211.43822887  .00002686  00000-0  65594-3 0  9994
2 35627  86.3498 101.0359 0051611 332.3937  27.4529 14.51482991483767
1 35628U 97051RA  18211.42469615  .00000462  00000-0  12855-3 0  9992
2 35628  86.3637  93.5334 0018685 331.8390  28.1799 14.44186047481021
1 35629U 97051RB  18211.73248195  .00002851  00000-0  54591-3 0  9992
2 35629  86.3679 122.3257 0123738  34.5569 326.3603 14.58618637478207
1 35631U 97051RD  18211.13239432  .00000131  00000-0  33859-4 0  9997
2 35631  86.3684  91.9783 0019971  34.5802 127.8996 14.41891383486429
1 35632U 97051RE  18211.34649875 +.00000702 +00000-0 +27695-3 0  9991
2 35632 086.4309 175.7146 0110783 323.8125 035.5604 14.24499029471791
1 35643U 93036ANJ 18212.40416551  .00000613  00000-0  13343-3 0  9999
2 35643  74.0130 359.7916 0051055  69.2642 291.3984 14.59425041491323
1 35644U 93036ANK 18212.18486254  .00001149  00000-0  96614-4 0  9990
2 35644  74.0072 154.4062 0026009 268.2222  91.5985 14.99440421500782
1 35645U 93036ANL 18211.59251248 +.00000400 +00000-0 +17986-3 0  9991
2 35645 073.9791 312.1953 0092803 349.8812 068.9206 14.23279549483194
1 35646U 93036ANM 18211.05309119 +.00000382 +00000-0 +41314-3 0  9995
2 35646 073.8748 347.8112 0470944 194.5561 290.2733 13.36634263458468
1 35647U 93036ANN 18211.32246660 +.00000240 +00000-0 +94146-4 0  9992
2 35647 074.0246 203.4718 0057239 233.9469 125.6372 14.33701177290075
1 35650U 93036ANR 18211.34155299 +.00000466 +00000-0 +12776-3 0  9993
2 35650 074.0588 083.8588 0033372 118.5706 003.3514 14.49591349484280
1 35653U 93036ANU 18211.86552552 +.00014680 +00000-0 +60576-3 0  9990
2 35653 073.9878 165.5250 0011009 253.5700 106.4289 15.23997338486809
1 35655U 93036ANW 18212.12155261  .00000597  00000-0  11834-3 0  9993
2 35655  74.0009 336.3909 0011135 111.1488 249.0871 14.64516733491526
1 35658U 93036ANZ 18210.36611899 +.00000812 +00000-0 +20695-3 0  9999
2 35658 074.0163 094.3551 0023543 114.4961 245.8658 14.52061582485155
1 35660U 93036APB 18211.04791932  .00000162  00000-0  56273-4 0  9995
2 35660  74.0429 105.2687 0020202 202.4217 220.7145 14.42968480477556
1 35661U 93036APC 18211.44323045 +.00000230 +00000-0 +44536-4 0  9991
2 35661 074.0219 261.6162 0131165 325.3577 033.9096 14.64438733483221
1 35662U 93036APD 13079.36946758  .00008121  00000-0  16816-2 0  9997
2 35662  74.0484  86.4520 0054575 276.7273  85.3655 14.59456226199540
1 35663U 93036APE 18212.48447649  .00000440  00000-0  13895-3 0  9991
2 35663  74.0297 128.8836 0014474 145.7275 214.4818 14.43109621478920
1 35667U 93036APJ 18207.18429004 +.00000314 +00000-0 +10039-3 0  9998
2 35667 074.0606 135.7174 0028746 162.1140 198.1036 14.43429273317875
1 35668U 93036APK 18211.58385948 +.00000081 +00000-0 +23397-4 0  9999
2 35668 074.0484 309.2488 0090912 023.3367 337.1883 14.57697197483774
1 35669U 93036APL 18208.32748055 +.00000093 +00000-0 +10257-3 0  9993
2 35669 073.8642 209.5016 0401395 065.6281 298.6170 13.52135670456184
1 35670U 93036APM 18211.57348601 +.00000272 +00000-0 +60930-4 0  9992
2 35670 073.9075 266.3374 0063505 105.8318 254.9860 14.60627990482338
1 35671U 93036APN 18211.96227234 +.00000045 +00000-0 +20726-4 0  9991
2 35671 074.0189 064.8313 0042529 172.9499 254.3995 14.44832632478622
1 35672U 93036APP 18211.77757152  .00000440  00000-0  95986-4 0  9997
2 35672  74.0592  10.0055 0050777  42.5415  20.7128 14.60136094482323
1 35673U 93036APQ 18211.60869389 +.00002251 +00000-0 +22957-3 0  9995
2 35673 073.9498 181.9240 0023018 336.0493 148.0687 14.91162438281692
1 35674U 93036APR 18211.45071940 +.00000457 +00000-0 +15725-3 0  9998
2 35674 074.0662 235.1935 0133817 243.0502 185.0277 14.34006584473862
1 35675U 93036APS 18212.30316408  .00000867  00000-0  28279-3 0  9998
2 35675  74.0144 207.4979 0053654 192.3130 167.6718 14.39311740475081
1 35676U 93036APT 18211.41735690  .00000406  00000-0  87348-4 0  9990
2 35676  74.0117   6.5060 0038211  82.6607 309.0856 14.61417582488820
1 35678U 97051RG  18212.54344552  .00002743  00000-0  37338-3 0  9990
2 35678  86.3543  61.5673 0006708  66.6773 293.5152 14.78390652484697
1 35679U 97051RH  18212.53669118  .00007396  00000-0  66435-3 0  9997
2 35679  86.3147  55.0107 0019532  60.9324 299.3859 14.95414710486417
1 35348U 01049QG  18210.73076587 +.00000573 +00000-0 +10746-3 0  9998
2 35348 098.0064 198.2021 0055033 063.6970 296.9874 14.67533163861179
1 35349U 01049QH  18209.81976485 +.00001685 +00000-0 +81712-4 0  9999
2 35349 097.5434 218.8021 0021622 133.1823 227.1223 15.19727247645317
1 35350U 01049QJ  18210.10850115 +.00000130 +00000-0 +46734-4 0  9995
2 35350 098.4536 173.1011 0074829 135.9694 224.7491 14.47249090266647
1 35351U 01049QK  18210.68691487 +.00000375 +00000-0 +12606-3 0  9995
2 35351 098.7600 113.1211 0005447 029.0835 331.0656 14.42987482267475
1 35354U 93014BD  18210.54711913 +.00001615 +00000-0 +21174-3 0  9991
2 35354 075.7373 282.0593 0069656 071.0211 289.8505 14.79126269651834
1 35356U 93014BF  18207.98431602 +.00002414 +00000-0 +34723-3 0  9993
2 35356 075.7477 329.2658 0071030 122.2220 238.5876 14.74984127271206
1 35359U 93014BJ  18210.63167466 +.00001753 +00000-0 +24465-3 0  9993
2 35359 075.7421 327.6240 0066916 123.3745 237.3867 14.76588500580474
1 35360U 93014BK  18211.54605328 +.00001568 +00000-0 +21847-3 0  9995
2 35360 075.7377 291.9134 0079453 087.0483 273.9790 14.76076667603895
